2022-023A               
1 51946U 22023A   26066.38437076  .00004303  00000+0  19500-3 0  9999
2 51946  63.4765 256.0240 0098533 341.4326  18.3199 15.18202647222269
STARLINK-30184          
1 57310U 23096W   26068.38005882 -.00006934  00000+0 -24898-3 0  9999
2 57310  42.9995 196.1920 0001210 235.1577 124.9161 15.26752307147002
